<?xml version="1.0" encoding="UTF-8"?>
<osm version="0.6" generator="CityGraph test fixture">
  <bounds minlat="31.0000" minlon="121.0000" maxlat="31.0030" maxlon="121.0030"/>
  <node id="1" lat="31.0010" lon="121.0000"/>
  <node id="2" lat="31.0011" lon="121.0005"/>
  <node id="3" lat="31.0010" lon="121.0010"/>
  <node id="4" lat="31.0010" lon="121.0020"/>
  <node id="5" lat="31.0000" lon="121.0010"/>
  <node id="6" lat="31.0020" lon="121.0010"/>
  <node id="7" lat="31.0000" lon="121.0015"/>
  <node id="8" lat="31.0020" lon="121.0015"/>
  <node id="10" lat="31.0000" lon="121.0000"/>
  <node id="11" lat="31.0000" lon="121.0003"/>
  <node id="12" lat="31.0003" lon="121.0003"/>
  <node id="13" lat="31.0003" lon="121.0000"/>
  <node id="20" lat="31.0020" lon="121.0020"/>
  <node id="21" lat="31.0020" lon="121.0030"/>
  <node id="22" lat="31.0030" lon="121.0030"/>
  <node id="23" lat="31.0030" lon="121.0020"/>
  <node id="30" lat="31.0020" lon="121.0000"/>
  <node id="31" lat="31.0020" lon="121.0005"/>
  <node id="32" lat="31.0025" lon="121.0005"/>
  <node id="33" lat="31.0025" lon="121.0000"/>
  <node id="9007199254740993" lat="31.0002" lon="121.0001">
    <tag k="amenity" v="cafe"/><tag k="name" v="河畔 &amp; Coffee"/>
  </node>
  <way id="100"><nd ref="1"/><nd ref="2"/><nd ref="3"/><nd ref="4"/><tag k="highway" v="primary"/><tag k="name" v="中央路"/><tag k="width" v="12 m"/></way>
  <way id="101"><nd ref="5"/><nd ref="3"/><nd ref="6"/><tag k="highway" v="residential"/><tag k="name" v="南北路"/></way>
  <way id="102"><nd ref="7"/><nd ref="8"/><tag k="highway" v="secondary"/><tag k="bridge" v="yes"/><tag k="layer" v="2"/></way>
  <way id="200"><nd ref="10"/><nd ref="11"/><nd ref="12"/><nd ref="13"/><nd ref="10"/><tag k="building" v="apartments"/><tag k="building:levels" v="6"/><tag k="height" v="20"/><tag k="name" v="滨河公寓"/></way>
  <way id="300"><nd ref="20"/><nd ref="21"/><nd ref="22"/><nd ref="23"/><nd ref="20"/><tag k="natural" v="water"/><tag k="name" v="镜湖"/></way>
  <way id="400"><nd ref="30"/><nd ref="31"/><nd ref="32"/><nd ref="33"/><nd ref="30"/><tag k="leisure" v="park"/><tag k="name" v="街角公园"/></way>
</osm>
